{
  "type": "FeatureCollection",
  "features": [
    {
      "type": "Feature",
      "properties": {
        "norad_id": 34722,
        "name": "COSMOS 2251 DEB",
        "group": "cosmos-2251-debris",
        "lat": -30.879708272595423,
        "lon": -32.861095230771674,
        "alt_km": 805.741279744906,
        "timestamp": "2025-12-12T03:50:52.813375+00:00",
        "meta_object_name": "COSMOS 2251 DEB",
        "meta_object_id": "1993-036YQ",
        "meta_epoch": "2025-12-11T10:01:36.992064",
        "meta_mean_motion": 14.11928853,
        "meta_eccentricity": 0.01672055,
        "meta_inclination": 73.8734,
        "meta_ra_of_asc_node": 338.4258,
        "meta_arg_of_pericenter": 264.2111,
        "meta_mean_anomaly": 249.0176,
        "meta_ephemeris_type": 0,
        "meta_classification_type": "U",
        "meta_norad_cat_id": 34722,
        "meta_element_set_no": 999,
        "meta_rev_at_epoch": 86226,
        "meta_bstar": 0.0013747981,
        "meta_mean_motion_dot": 2.841e-05,
        "meta_mean_motion_ddot": 0,
        "tle_line1": "1 34722U 93036YQ  25345.41778926  .00002841  00000+0  13748-2 0  9991",
        "tle_line2": "2 34722  73.8734 338.4258 0167205 264.2111 249.0176 14.11928853862268"
      },
      "geometry": {
        "type": "Point",
        "coordinates": [
          -32.861095230771674,
          -30.879708272595423
        ]
      }
    },
    {
      "type": "Feature",
      "properties": {
        "norad_id": 34726,
        "name": "COSMOS 2251 DEB",
        "group": "cosmos-2251-debris",
        "lat": -68.6417108258883,
        "lon": -145.48765239207071,
        "alt_km": 715.2184123643838,
        "timestamp": "2025-12-12T03:50:52.813385+00:00",
        "meta_object_name": "COSMOS 2251 DEB",
        "meta_object_id": "1993-036YU",
        "meta_epoch": "2025-12-11T00:21:43.820064",
        "meta_mean_motion": 14.59471055,
        "meta_eccentricity": 0.00420629,
        "meta_inclination": 74.0292,
        "meta_ra_of_asc_node": 349.6136,
        "meta_arg_of_pericenter": 141.0021,
        "meta_mean_anomaly": 219.4191,
        "meta_ephemeris_type": 0,
        "meta_classification_type": "U",
        "meta_norad_cat_id": 34726,
        "meta_element_set_no": 999,
        "meta_rev_at_epoch": 88477,
        "meta_bstar": 0.00059341044,
        "meta_mean_motion_dot": 2.821e-05,
        "meta_mean_motion_ddot": 0,
        "tle_line1": "1 34726U 93036YU  25345.01509051  .00002821  00000+0  59341-3 0  9990",
        "tle_line2": "2 34726  74.0292 349.6136 0042062 141.0021 219.4191 14.59471055884775"
      },
      "geometry": {
        "type": "Point",
        "coordinates": [
          -145.48765239207071,
          -68.6417108258883
        ]
      }
    },
    {
      "type": "Feature",
      "properties": {
        "norad_id": 34728,
        "name": "COSMOS 2251 DEB",
        "group": "cosmos-2251-debris",
        "lat": 64.64230103124783,
        "lon": 35.683495260501566,
        "alt_km": 636.8817836159706,
        "timestamp": "2025-12-12T03:50:52.813395+00:00",
        "meta_object_name": "COSMOS 2251 DEB",
        "meta_object_id": "1993-036YW",
        "meta_epoch": "2025-12-11T04:29:59.772768",
        "meta_mean_motion": 14.70820448,
        "meta_eccentricity": 0.00410287,
        "meta_inclination": 74.0167,
        "meta_ra_of_asc_node": 254.7862,
        "meta_arg_of_pericenter": 52.8225,
        "meta_mean_anomaly": 307.668,
        "meta_ephemeris_type": 0,
        "meta_classification_type": "U",
        "meta_norad_cat_id": 34728,
        "meta_element_set_no": 999,
        "meta_rev_at_epoch": 88777,
        "meta_bstar": 0.0012296357,
        "meta_mean_motion_dot": 7.588e-05,
        "meta_mean_motion_ddot": 0,
        "tle_line1": "1 34728U 93036YW  25345.18749737  .00007588  00000+0  12296-2 0  9999",
        "tle_line2": "2 34728  74.0167 254.7862 0041028  52.8225 307.6680 14.70820448887779"
      },
      "geometry": {
        "type": "Point",
        "coordinates": [
          35.683495260501566,
          64.64230103124783
        ]
      }
    },
    {
      "type": "Feature",
      "properties": {
        "norad_id": 34729,
        "name": "COSMOS 2251 DEB",
        "group": "cosmos-2251-debris",
        "lat": 72.08667531457604,
        "lon": 117.1290354074476,
        "alt_km": 605.5212873978071,
        "timestamp": "2025-12-12T03:50:52.813405+00:00",
        "meta_object_name": "COSMOS 2251 DEB",
        "meta_object_id": "1993-036YX",
        "meta_epoch": "2025-12-11T11:53:33.442944",
        "meta_mean_motion": 14.82746168,
        "meta_eccentricity": 0.0011812,
        "meta_inclination": 74.0184,
        "meta_ra_of_asc_node": 0.8939,
        "meta_arg_of_pericenter": 120.5033,
        "meta_mean_anomaly": 30.4826,
        "meta_ephemeris_type": 0,
        "meta_classification_type": "U",
        "meta_norad_cat_id": 34729,
        "meta_element_set_no": 999,
        "meta_rev_at_epoch": 88439,
        "meta_bstar": 0.0036352338,
        "meta_mean_motion_dot": 0.00029499,
        "meta_mean_motion_ddot": 0,
        "tle_line1": "1 34729U 93036YX  25345.49552596  .00029499  00000+0  36352-2 0  9993",
        "tle_line2": "2 34729  74.0184   0.8939 0011812 120.5033  30.4826 14.82746168884399"
      },
      "geometry": {
        "type": "Point",
        "coordinates": [
          117.1290354074476,
          72.08667531457604
        ]
      }
    },
    {
      "type": "Feature",
      "properties": {
        "norad_id": 34732,
        "name": "COSMOS 2251 DEB",
        "group": "cosmos-2251-debris",
        "lat": 36.553718772120995,
        "lon": 106.51460278136956,
        "alt_km": 757.1549731086507,
        "timestamp": "2025-12-12T03:50:52.813416+00:00",
        "meta_object_name": "COSMOS 2251 DEB",
        "meta_object_id": "1993-036ZA",
        "meta_epoch": "2025-12-11T07:54:25.399296",
        "meta_mean_motion": 14.47298707,
        "meta_eccentricity": 0.00404226,
        "meta_inclination": 74.0452,
        "meta_ra_of_asc_node": 95.821,
        "meta_arg_of_pericenter": 247.1005,
        "meta_mean_anomaly": 143.733,
        "meta_ephemeris_type": 0,
        "meta_classification_type": "U",
        "meta_norad_cat_id": 34732,
        "meta_element_set_no": 999,
        "meta_rev_at_epoch": 88123,
        "meta_bstar": 0.00027123805,
        "meta_mean_motion_dot": 9.75e-06,
        "meta_mean_motion_ddot": 0,
        "tle_line1": "1 34732U 93036ZA  25345.32946064  .00000975  00000+0  27124-3 0  9992",
        "tle_line2": "2 34732  74.0452  95.8210 0040422 247.1005 143.7330 14.47298707881231"
      },
      "geometry": {
        "type": "Point",
        "coordinates": [
          106.51460278136956,
          36.553718772120995
        ]
      }
    },
    {
      "type": "Feature",
      "properties": {
        "norad_id": 34736,
        "name": "COSMOS 2251 DEB",
        "group": "cosmos-2251-debris",
        "lat": -41.26876766813751,
        "lon": 22.9139738747979,
        "alt_km": 420.6627150798022,
        "timestamp": "2025-12-12T03:50:52.813426+00:00",
        "meta_object_name": "COSMOS 2251 DEB",
        "meta_object_id": "1993-036ZE",
        "meta_epoch": "2025-12-11T12:30:45.529056",
        "meta_mean_motion": 15.46488649,
        "meta_eccentricity": 0.00172061,
        "meta_inclination": 74.0016,
        "meta_ra_of_asc_node": 38.8949,
        "meta_arg_of_pericenter": 348.4134,
        "meta_mean_anomaly": 11.6678,
        "meta_ephemeris_type": 0,
        "meta_classification_type": "U",
        "meta_norad_cat_id": 34736,
        "meta_element_set_no": 999,
        "meta_rev_at_epoch": 88429,
        "meta_bstar": 0.012966163,
        "meta_mean_motion_dot": 0.00697379,
        "meta_mean_motion_ddot": 0,
        "tle_line1": "1 34736U 93036ZE  25345.52136029  .00697379  00000+0  12966-1 0  9996",
        "tle_line2": "2 34736  74.0016  38.8949 0017206 348.4134  11.6678 15.46488649884292"
      },
      "geometry": {
        "type": "Point",
        "coordinates": [
          22.9139738747979,
          -41.26876766813751
        ]
      }
    },
    {
      "type": "Feature",
      "properties": {
        "norad_id": 34738,
        "name": "COSMOS 2251 DEB",
        "group": "cosmos-2251-debris",
        "lat": 66.66990310033292,
        "lon": -173.99702209366387,
        "alt_km": 757.4495750218484,
        "timestamp": "2025-12-12T03:50:52.813436+00:00",
        "meta_object_name": "COSMOS 2251 DEB",
        "meta_object_id": "1993-036ZG",
        "meta_epoch": "2025-12-11T11:03:14.448960",
        "meta_mean_motion": 14.46298249,
        "meta_eccentricity": 0.00473628,
        "meta_inclination": 74.0151,
        "meta_ra_of_asc_node": 145.6567,
        "meta_arg_of_pericenter": 292.1693,
        "meta_mean_anomaly": 98.4213,
        "meta_ephemeris_type": 0,
        "meta_classification_type": "U",
        "meta_norad_cat_id": 34738,
        "meta_element_set_no": 999,
        "meta_rev_at_epoch": 87840,
        "meta_bstar": 0.0005858198,
        "meta_mean_motion_dot": 2.101e-05,
        "meta_mean_motion_ddot": 0,
        "tle_line1": "1 34738U 93036ZG  25345.46058390  .00002101  00000+0  58582-3 0  9994",
        "tle_line2": "2 34738  74.0151 145.6567 0047362 292.1693  98.4213 14.46298249878406"
      },
      "geometry": {
        "type": "Point",
        "coordinates": [
          -173.99702209366387,
          66.66990310033292
        ]
      }
    }
  ]
}